#aV2020  5 13  0  0  0.00000000     288 DD+AD WGS84 FIT  NGA
## 2105 259200.00000000   300.00000000 58982 0.0000000000000
+   32     1  2  3  4  5  6  7  8  9 10 11 12 13 14 15 16 17
+         18 19 20 21 22 23 24 25 26 27 28 29 30 31 32  0  0
+          0  0  0  0  0  0  0  0  0  0  0  0  0  0  0  0  0
+          0  0  0  0  0  0  0  0  0  0  0  0  0  0  0  0  0
+          0  0  0  0  0  0  0  0  0  0  0  0  0  0  0  0  0
++         2  2  2  2  2  2  2  2  2  2  2  2  2  2  2  2  2
++         2  2  2  2  2  2  2  2  2  2  2  2  2  2  2  0  0
++         0  0  0  0  0  0  0  0  0  0  0  0  0  0  0  0  0
++         0  0  0  0  0  0  0  0  0  0  0  0  0  0  0  0  0
++         0  0  0  0  0  0  0  0  0  0  0  0  0  0  0  0  0
%c cc cc ccc ccc cccc cccc cccc cccc ccccc ccccc ccccc ccccc
%c cc cc ccc ccc cccc cccc cccc cccc ccccc ccccc ccccc ccccc
%f  0.0000000  0.000000000  0.00000000000  0.000000000000000
%f  0.0000000  0.000000000  0.00000000000  0.000000000000000
%i    0    0    0    0      0      0      0      0         0
%i    0    0    0    0      0      0      0      0         0
/*      NGA, ST. LOUIS,MO.                                  
/*   EPHEMERIS COMPUTED FROM 2 DAYS OF DATA                 
/*   EPOCHA v5 SMOOTHER                                     
/*   G1762 IERS2010 SATAF SATAPC                            
*  2020  5 13 22 35  0.00000000
P  1  21446.006036  15201.890749  -5129.233296   -379.255331                    
V  1  -6302.192581  -1253.424631 -31089.486879     -0.067017                    
P  2  -2872.729172 -17116.070631  20761.470880   -455.384092                    
V  2  23206.605637   9145.615543  11041.387755     -0.062070                    
P  3  12448.793661  16259.920264  16910.792719   -174.791918                    
V  3   -679.107643  21587.059263 -20085.066244     -0.120799                    
P  4  17361.817616   5455.675591  19368.483313    -88.941025                    
V  4 -20453.680105  13657.057032  14466.228238     -0.050105                    
P  5  -1797.899006 -26386.067039    320.672696    -12.612886                    
V  5   3301.730773    319.406410  31690.385482     -0.007180                    
P  6   9017.866322 -11949.364806  21994.496550   -270.970550                    
V  6  24554.244337  12906.709446  -3018.578286     -0.068677                    
P  7  23901.321173   3722.767756 -11206.750995   -280.434493                    
V  7  11732.368209   8886.105830  26754.766146     -0.086779                    
P  8   6961.766216  13360.265839 -21849.173034    -33.890074                    
V  8 -23307.747554  15084.636443   2046.801606     -0.013547                    
P  9  23114.716534  -5005.507564  12058.462169   -216.709425                    
V  9 -11429.846897  10629.510765  26198.269305     -0.073277                    
P 10 -11892.249569  15025.743994 -18200.441442   -340.043638                    
V 10  -2743.541738 -23261.766951 -17556.402178     -0.116298                    
P 11  15545.282559  13444.376262 -17154.750771   -278.165373                    
V 11 -21172.424303   2341.356818 -18180.238726      0.106898                    
P 12 -10552.082846 -17967.206417  16328.189016    118.275531                    
V 12   2002.801755 -21033.278419 -21384.145647     -0.043854                    
P 13   2203.116950 -16733.740366 -20602.701846      9.753613                    
V 13  23804.007280 -10242.802837  11016.122216      0.030448                    
P 14 -15549.037793  17885.831102  12143.303746    -13.187768                    
V 14 -14329.529818   4896.007384 -26499.260909      0.026018                    
P 15  -9475.140483 -12986.487813 -21447.113113   -231.418277                    
V 15  21004.834301 -16407.199671   1046.085235      0.025968                    
P 16     37.962316  26269.836232  -1753.739823   -157.834211                    
V 16  -2703.490491   1871.503254  32340.010190     -0.045118                    
P 17  21624.054103 -15010.139277   3765.379675    264.253689                    
V 17   4712.367342   -292.839724 -31823.108104      0.060662                    
P 18 -23704.062618  -4061.373836 -11328.761372    188.697412                    
V 18 -11467.843349  -8931.677603  27180.708736      0.121741                    
P 19  17699.016131 -16658.896101  10385.961058   -159.195841                    
V 19  13050.207736  -4348.373643 -28411.401492      0.051103                    
P 20 -15542.659183   3040.384040 -21397.862223    527.699959                    
V 20  -4943.490066 -26644.102457   -414.277015     -0.000574                    
P 21 -23298.726675  -1094.674810 -11716.069202     -1.783799                    
V 21 -13625.251077  -9184.207953  26547.641300      0.049718                    
P 22  10173.763289  22769.509678   9546.537657   -782.391126                    
V 22  -1653.171796  12148.470956 -27719.566666      0.012362                    
P 23  23523.766202  -5410.540502  11934.384255   -114.441592                    
V 23 -10636.936640  10067.848818  25979.907126      0.030921                    
P 24 -21082.918235 -14991.425649  -7007.934568    -12.976763                    
V 24   9081.099815    700.414098 -29290.097259     -0.004464                    
P 25 -14627.003366  -7600.169898  20641.895651      3.841504                    
V 25   -436.384441 -26692.108038  -9761.355967      0.030450                    
P 26  -5543.387607  23717.622719  10283.100948    205.849864                    
V 26  -4084.766019 -12927.291727  27740.060872      0.071741                    
P 27  -4453.044065  18038.655266 -18984.560725   -292.895691                    
V 27 -20816.174396  11789.954798  16532.974883     -0.102006                    
P 28  12072.476271 -16181.524784 -16752.316010    717.662758                    
V 28    492.440938  22357.117766 -20395.045845     -0.032291                    
P 29 -22091.001919    975.972796  14685.403445   -103.656093                    
V 29  15658.552321 -10276.118537  24142.538626     -0.088501                    
P 30  17882.050704  -5745.776057 -18819.024249   -219.452304                    
V 30  20129.333418  13129.976038  14874.095817     -0.082213                    
P 31  -8291.254572  12839.108963  21689.632797    -42.183075                    
V 31 -24235.776148 -13289.734025   -948.255313     -0.025273                    
P 32 -20401.883319  16463.313785   3820.221405    279.871185                    
V 32  -5650.303675     63.866917 -31262.468004      0.076791                    
EOF
